{"type": "FeatureCollection", "features": [ {"type": "Feature", "properties": {"norad_id": 36442, "name": "COSMOS 2251 DEB", "group": "cosmos-2251-debris", "lat": -7.467729656119609, "lon": -165.7588320904506, "alt_km": 471.2012394687681, "timestamp": "2025-12-25T09:48:52.686356+00:00", "meta": {"OBJECT_NAME": "COSMOS 2251 DEB", "OBJECT_ID": "1993-036BAR", "EPOCH": "2025-12-21T18:51:31.867200", "MEAN_MOTION": 15.32486394, "ECCENTRICITY": 0.00080169, "INCLINATION": 73.9482, "RA_OF_ASC_NODE": 19.8637, "ARG_OF_PERICENTER": 316.0651, "MEAN_ANOMALY": 43.9914, "EPHEMERIS_TYPE": 0, "CLASSIFICATION_TYPE": "U", "NORAD_CAT_ID": 36442, "ELEMENT_SET_NO": 999, "REV_AT_EPOCH": 86054, "BSTAR": 0.0050536247, "MEAN_MOTION_DOT": 0.00162161, "MEAN_MOTION_DDOT": 0}, "tle": {"line1": "1 36442U 93036BAR 25355.78578550  .00162161  00000+0  50536-2 0  9992", "line2": "2 36442  73.9482  19.8637 0008016 316.0651  43.9914 15.32486394860543"}}, "geometry": {"type": "Point", "coordinates": [-165.7588320904506, -7.467729656119609]}}, {"type": "Feature", "properties": {"norad_id": 36451, "name": "COSMOS 2251 DEB", "group": "cosmos-2251-debris", "lat": -39.380306619741496, "lon": -61.17780312198668, "alt_km": 967.3104109130954, "timestamp": "2025-12-25T09:48:52.686366+00:00", "meta": {"OBJECT_NAME": "COSMOS 2251 DEB", "OBJECT_ID": "1993-036BBA", "EPOCH": "2025-12-17T15:51:47.903904", "MEAN_MOTION": 14.18761243, "ECCENTRICITY": 0.01833733, "INCLINATION": 73.9538, "RA_OF_ASC_NODE": 326.3887, "ARG_OF_PERICENTER": 149.6881, "MEAN_ANOMALY": 211.5024, "EPHEMERIS_TYPE": 0, "CLASSIFICATION_TYPE": "U", "NORAD_CAT_ID": 36451, "ELEMENT_SET_NO": 999, "REV_AT_EPOCH": 84295, "BSTAR": 0.0004725236, "MEAN_MOTION_DOT": 1.135e-05, "MEAN_MOTION_DDOT": 0}, "tle": {"line1": "1 36451U 93036BBA 25351.66097111  .00001135  00000+0  47252-3 0  9999", "line2": "2 36451  73.9538 326.3887 0183373 149.6881 211.5024 14.18761243842955"}}, "geometry": {"type": "Point", "coordinates": [-61.17780312198668, -39.380306619741496]}}, {"type": "Feature", "properties": {"norad_id": 36453, "name": "COSMOS 2251 DEB", "group": "cosmos-2251-debris", "lat": -41.59464158063136, "lon": 113.50023382948457, "alt_km": 707.0882100646868, "timestamp": "2025-12-25T09:48:52.686376+00:00", "meta": {"OBJECT_NAME": "COSMOS 2251 DEB", "OBJECT_ID": "1993-036BBC", "EPOCH": "2025-12-24T15:52:54.435360", "MEAN_MOTION": 14.52685081, "ECCENTRICITY": 0.00706677, "INCLINATION": 73.9241, "RA_OF_ASC_NODE": 129.7501, "ARG_OF_PERICENTER": 29.7309, "MEAN_ANOMALY": 341.3832, "EPHEMERIS_TYPE": 0, "CLASSIFICATION_TYPE": "U", "NORAD_CAT_ID": 36453, "ELEMENT_SET_NO": 999, "REV_AT_EPOCH": 84641, "BSTAR": 0.00085702577, "MEAN_MOTION_DOT": 3.602e-05, "MEAN_MOTION_DDOT": 0}, "tle": {"line1": "1 36453U 93036BBC 25358.66174115  .00003602  00000+0  85703-3 0  9992", "line2": "2 36453  73.9241 129.7501 0070667  29.7309 341.3832 14.52685081846417"}}, "geometry": {"type": "Point", "coordinates": [113.50023382948457, -41.59464158063136]}}, {"type": "Feature", "properties": {"norad_id": 36459, "name": "COSMOS 2251 DEB", "group": "cosmos-2251-debris", "lat": 54.206195278676844, "lon": 133.53544047020245, "alt_km": 748.5189218629494, "timestamp": "2025-12-25T09:48:52.686386+00:00", "meta": {"OBJECT_NAME": "COSMOS 2251 DEB", "OBJECT_ID": "1993-036BBJ", "EPOCH": "2025-12-20T06:23:01.272480", "MEAN_MOTION": 14.26454896, "ECCENTRICITY": 0.0113312, "INCLINATION": 74.0464, "RA_OF_ASC_NODE": 346.1968, "ARG_OF_PERICENTER": 79.9168, "MEAN_ANOMALY": 281.4741, "EPHEMERIS_TYPE": 0, "CLASSIFICATION_TYPE": "U", "NORAD_CAT_ID": 36459, "ELEMENT_SET_NO": 999, "REV_AT_EPOCH": 7989, "BSTAR": 0.00092616994, "MEAN_MOTION_DOT": 2.362e-05, "MEAN_MOTION_DDOT": 0}, "tle": {"line1": "1 36459U 93036BBJ 25354.26598695  .00002362  00000+0  92617-3 0  9997", "line2": "2 36459  74.0464 346.1968 0113312  79.9168 281.4741 14.26454896 79891"}}, "geometry": {"type": "Point", "coordinates": [133.53544047020245, 54.206195278676844]}}, {"type": "Feature", "properties": {"norad_id": 36470, "name": "COSMOS 2251 DEB", "group": "cosmos-2251-debris", "lat": -73.80512944108423, "lon": 141.5834679141725, "alt_km": 560.9693397253586, "timestamp": "2025-12-25T09:48:52.686395+00:00", "meta": {"OBJECT_NAME": "COSMOS 2251 DEB", "OBJECT_ID": "1993-036BBV", "EPOCH": "2025-12-15T00:13:00.014016", "MEAN_MOTION": 15.07582269, "ECCENTRICITY": 0.00222568, "INCLINATION": 73.8449, "RA_OF_ASC_NODE": 249.6845, "ARG_OF_PERICENTER": 78.1368, "MEAN_ANOMALY": 282.2316, "EPHEMERIS_TYPE": 0, "CLASSIFICATION_TYPE": "U", "NORAD_CAT_ID": 36470, "ELEMENT_SET_NO": 999, "REV_AT_EPOCH": 66128, "BSTAR": 0.0018721064, "MEAN_MOTION_DOT": 0.0002872, "MEAN_MOTION_DDOT": 0}, "tle": {"line1": "1 36470U 93036BBV 25349.00902794  .00028720  00000+0  18721-2 0  9994", "line2": "2 36470  73.8449 249.6845 0022256  78.1368 282.2316 15.07582269661287"}}, "geometry": {"type": "Point", "coordinates": [141.5834679141725, -73.80512944108423]}}, {"type": "Feature", "properties": {"norad_id": 36528, "name": "COSMOS 2251 DEB", "group": "cosmos-2251-debris", "lat": 61.94124105994345, "lon": 154.65996623663818, "alt_km": 795.2775478803896, "timestamp": "2025-12-25T09:48:52.686405+00:00", "meta": {"OBJECT_NAME": "COSMOS 2251 DEB", "OBJECT_ID": "1993-036BCN", "EPOCH": "2025-12-23T02:07:16.025088", "MEAN_MOTION": 14.30700517, "ECCENTRICITY": 0.00843039, "INCLINATION": 74.0164, "RA_OF_ASC_NODE": 126.3587, "ARG_OF_PERICENTER": 173.6908, "MEAN_ANOMALY": 186.5326, "EPHEMERIS_TYPE": 0, "CLASSIFICATION_TYPE": "U", "NORAD_CAT_ID": 36528, "ELEMENT_SET_NO": 999, "REV_AT_EPOCH": 64575, "BSTAR": 0.0012053089, "MEAN_MOTION_DOT": 3.253e-05, "MEAN_MOTION_DDOT": 0}, "tle": {"line1": "1 36528U 93036BCN 25357.08837992  .00003253  00000+0  12053-2 0  9998", "line2": "2 36528  74.0164 126.3587 0084303 173.6908 186.5326 14.30700517645758"}}, "geometry": {"type": "Point", "coordinates": [154.65996623663818, 61.94124105994345]}}, {"type": "Feature", "properties": {"norad_id": 36533, "name": "COSMOS 2251 DEB", "group": "cosmos-2251-debris", "lat": 18.07594652876284, "lon": 96.37653641922871, "alt_km": 753.2052720127158, "timestamp": "2025-12-25T09:48:52.686415+00:00", "meta": {"OBJECT_NAME": "COSMOS 2251 DEB", "OBJECT_ID": "1993-036BCT", "EPOCH": "2025-12-24T23:47:29.202144", "MEAN_MOTION": 14.49859831, "ECCENTRICITY": 0.0049201, "INCLINATION": 74.0122, "RA_OF_ASC_NODE": 91.7921, "ARG_OF_PERICENTER": 238.8301, "MEAN_ANOMALY": 120.8031, "EPHEMERIS_TYPE": 0, "CLASSIFICATION_TYPE": "U", "NORAD_CAT_ID": 36533, "ELEMENT_SET_NO": 999, "REV_AT_EPOCH": 84662, "BSTAR": 0.00052466, "MEAN_MOTION_DOT": 2.029e-05, "MEAN_MOTION_DDOT": 0}, "tle": {"line1": "1 36533U 93036BCT 25358.99131021  .00002029  00000+0  52466-3 0  9998", "line2": "2 36533  74.0122  91.7921 0049201 238.8301 120.8031 14.49859831846621"}}, "geometry": {"type": "Point", "coordinates": [96.37653641922871, 18.07594652876284]}}, {"type": "Feature", "properties": {"norad_id": 36539, "name": "COSMOS 2251 DEB", "group": "cosmos-2251-debris", "lat": -62.22186937638268, "lon": -1.9387269232799031, "alt_km": 711.1528453563733, "timestamp": "2025-12-25T09:48:52.686425+00:00", "meta": {"OBJECT_NAME": "COSMOS 2251 DEB", "OBJECT_ID": "1993-036BCZ", "EPOCH": "2025-12-24T19:18:55.444896", "MEAN_MOTION": 14.59370787, "ECCENTRICITY": 0.00263865, "INCLINATION": 74.023, "RA_OF_ASC_NODE": 32.1628, "ARG_OF_PERICENTER": 174.9566, "MEAN_ANOMALY": 185.1871, "EPHEMERIS_TYPE": 0, "CLASSIFICATION_TYPE": "U", "NORAD_CAT_ID": 36539, "ELEMENT_SET_NO": 999, "REV_AT_EPOCH": 84123, "BSTAR": 0.00060617159, "MEAN_MOTION_DOT": 2.854e-05, "MEAN_MOTION_DDOT": 0}, "tle": {"line1": "1 36539U 93036BCZ 25358.80480839  .00002854  00000+0  60617-3 0  9991", "line2": "2 36539  74.0230  32.1628 0026386 174.9566 185.1871 14.59370787841239"}}, "geometry": {"type": "Point", "coordinates": [-1.9387269232799031, -62.22186937638268]}}, {"type": "Feature", "properties": {"norad_id": 36540, "name": "COSMOS 2251 DEB", "group": "cosmos-2251-debris", "lat": -36.60580246360843, "lon": -11.328535476955226, "alt_km": 693.4234322628399, "timestamp": "2025-12-25T09:48:52.686435+00:00", "meta": {"OBJECT_NAME": "COSMOS 2251 DEB", "OBJECT_ID": "1993-036BDA", "EPOCH": "2025-12-23T20:36:08.955072", "MEAN_MOTION": 14.58585087, "ECCENTRICITY": 0.0014628, "INCLINATION": 74.0279, "RA_OF_ASC_NODE": 159.3401, "ARG_OF_PERICENTER": 229.2513, "MEAN_ANOMALY": 130.7383, "EPHEMERIS_TYPE": 0, "CLASSIFICATION_TYPE": "U", "NORAD_CAT_ID": 36540, "ELEMENT_SET_NO": 999, "REV_AT_EPOCH": 86172, "BSTAR": 0.0012603, "MEAN_MOTION_DOT": 5.848e-05, "MEAN_MOTION_DDOT": 0}, "tle": {"line1": "1 36540U 93036BDA 25357.85843698  .00005848  00000+0  12603-2 0  9990", "line2": "2 36540  74.0279 159.3401 0014628 229.2513 130.7383 14.58585087861727"}}, "geometry": {"type": "Point", "coordinates": [-11.328535476955226, -36.60580246360843]}}, {"type": "Feature", "properties": {"norad_id": 36550, "name": "COSMOS 2251 DEB", "group": "cosmos-2251-debris", "lat": 64.95996234845644, "lon": -152.4104801080096, "alt_km": 841.1211499181272, "timestamp": "2025-12-25T09:48:52.686444+00:00", "meta": {"OBJECT_NAME": "COSMOS 2251 DEB", "OBJECT_ID": "1993-036BDL", "EPOCH": "2025-12-23T05:19:51.847104", "MEAN_MOTION": 14.27229725, "ECCENTRICITY": 0.00778519, "INCLINATION": 74.0443, "RA_OF_ASC_NODE": 173.7801, "ARG_OF_PERICENTER": 222.1192, "MEAN_ANOMALY": 137.3958, "EPHEMERIS_TYPE": 0, "CLASSIFICATION_TYPE": "U", "NORAD_CAT_ID": 36550, "ELEMENT_SET_NO": 999, "REV_AT_EPOCH": 84745, "BSTAR": 0.00062346046, "MEAN_MOTION_DOT": 1.548e-05, "MEAN_MOTION_DDOT": 0}, "tle": {"line1": "1 36550U 93036BDL 25357.22212786  .00001548  00000+0  62346-3 0  9993", "line2": "2 36550  74.0443 173.7801 0077851 222.1192 137.3958 14.27229725847452"}}, "geometry": {"type": "Point", "coordinates": [-152.4104801080096, 64.95996234845644]}}]}